{
 "type": "FeatureCollection",
 "features": [
  {
   "type": "Feature",
   "id": 1,
   "properties": {
    "slug": "aria",
    "room": "ARIA",
    "matched": "Aria Resort & Casino",
    "method": "contains+name",
    "height": 20,
    "levels": null
   },
   "geometry": {
    "type": "Polygon",
    "coordinates": [
     [
      [
       -115.1797996,
       36.1075385
      ],
      [
       -115.1797325,
       36.1065084
      ],
      [
       -115.1797148,
       36.1062204
      ],
      [
       -115.1795843,
       36.1062271
      ],
      [
       -115.1795883,
       36.1061024
      ],
      [
       -115.1797136,
       36.1060774
      ],
      [
       -115.1797077,
       36.105366
      ],
      [
       -115.1797061,
       36.105131
      ],
      [
       -115.1777554,
       36.1051353
      ],
      [
       -115.1777588,
       36.1057379
      ],
      [
       -115.1777197,
       36.1057302
      ],
      [
       -115.1776731,
       36.1055975
      ],
      [
       -115.1776208,
       36.105574
      ],
      [
       -115.1775536,
       36.1055735
      ],
      [
       -115.1771319,
       36.10557
      ],
      [
       -115.177067,
       36.1055902
      ],
      [
       -115.1770022,
       36.1056264
      ],
      [
       -115.1769673,
       36.1056748
      ],
      [
       -115.1769573,
       36.1057393
      ],
      [
       -115.176962,
       36.1063451
      ],
      [
       -115.1769623,
       36.1063841
      ],
      [
       -115.1764335,
       36.106394
      ],
      [
       -115.1760992,
       36.1063841
      ],
      [
       -115.1756809,
       36.1068047
      ],
      [
       -115.1757625,
       36.106805
      ],
      [
       -115.1758432,
       36.1068142
      ],
      [
       -115.1759064,
       36.1068277
      ],
      [
       -115.1759803,
       36.1068515
      ],
      [
       -115.1760171,
       36.106867
      ],
      [
       -115.1760526,
       36.1068845
      ],
      [
       -115.1760872,
       36.1069043
      ],
      [
       -115.17612,
       36.106926
      ],
      [
       -115.1761628,
       36.1069596
      ],
      [
       -115.1761739,
       36.1069695
      ],
      [
       -115.1761918,
       36.1069866
      ],
      [
       -115.1762174,
       36.1070142
      ],
      [
       -115.1762405,
       36.1070432
      ],
      [
       -115.1762707,
       36.1070896
      ],
      [
       -115.1762936,
       36.107136
      ],
      [
       -115.1763107,
       36.1071849
      ],
      [
       -115.1763154,
       36.1072031
      ],
      [
       -115.176324,
       36.1072549
      ],
      [
       -115.1763258,
       36.107306
      ],
      [
       -115.1763221,
       36.1073498
      ],
      [
       -115.1763075,
       36.1074144
      ],
      [
       -115.1762889,
       36.1074631
      ],
      [
       -115.1762669,
       36.1075052
      ],
      [
       -115.1762474,
       36.1075355
      ],
      [
       -115.1762246,
       36.1075656
      ],
      [
       -115.1762133,
       36.1075778
      ],
      [
       -115.1761981,
       36.1075942
      ],
      [
       -115.1761845,
       36.1076089
      ],
      [
       -115.1761416,
       36.1076462
      ],
      [
       -115.1761203,
       36.1076621
      ],
      [
       -115.176084,
       36.107686
      ],
      [
       -115.1760764,
       36.1076903
      ],
      [
       -115.1760497,
       36.1077054
      ],
      [
       -115.1760074,
       36.1077257
      ],
      [
       -115.1759545,
       36.1077461
      ],
      [
       -115.1759264,
       36.1077541
      ],
      [
       -115.1758843,
       36.107766
      ],
      [
       -115.175845,
       36.107773
      ],
      [
       -115.1758116,
       36.1077788
      ],
      [
       -115.175761,
       36.1077824
      ],
      [
       -115.1757317,
       36.1077845
      ],
      [
       -115.1756516,
       36.1077815
      ],
      [
       -115.1756364,
       36.108234
      ],
      [
       -115.1756294,
       36.1083532
      ],
      [
       -115.1755101,
       36.1083522
      ],
      [
       -115.1755101,
       36.1086003
      ],
      [
       -115.175532,
       36.1087673
      ],
      [
       -115.1756089,
       36.1087739
      ],
      [
       -115.1756138,
       36.1088294
      ],
      [
       -115.1756857,
       36.1088518
      ],
      [
       -115.1757495,
       36.1088677
      ],
      [
       -115.1758214,
       36.1088809
      ],
      [
       -115.1758835,
       36.1088927
      ],
      [
       -115.1759456,
       36.108902
      ],
      [
       -115.1760005,
       36.1089044
      ],
      [
       -115.1760846,
       36.108902
      ],
      [
       -115.1761434,
       36.1088967
      ],
      [
       -115.176262,
       36.1088807
      ],
      [
       -115.176417,
       36.1088547
      ],
      [
       -115.1764217,
       36.1088878
      ],
      [
       -115.1765824,
       36.1088232
      ],
      [
       -115.1766289,
       36.1087488
      ],
      [
       -115.176709,
       36.108688
      ],
      [
       -115.1767335,
       36.1086114
      ],
      [
       -115.1768576,
       36.1082582
      ],
      [
       -115.1769379,
       36.1082443
      ],
      [
       -115.1769477,
       36.1082073
      ],
      [
       -115.1769787,
       36.1081598
      ],
      [
       -115.1770163,
       36.1081122
      ],
      [
       -115.177067,
       36.1080647
      ],
      [
       -115.1771079,
       36.1080238
      ],
      [
       -115.1771336,
       36.1080016
      ],
      [
       -115.1771597,
       36.1079881
      ],
      [
       -115.1772022,
       36.1079617
      ],
      [
       -115.1772464,
       36.1079393
      ],
      [
       -115.1772954,
       36.1079195
      ],
      [
       -115.1773346,
       36.1079089
      ],
      [
       -115.1773657,
       36.1078983
      ],
      [
       -115.1773984,
       36.1078904
      ],
      [
       -115.1774785,
       36.1078851
      ],
      [
       -115.177454,
       36.1077795
      ],
      [
       -115.177503,
       36.1077768
      ],
      [
       -115.1775733,
       36.1077808
      ],
      [
       -115.177624,
       36.1077821
      ],
      [
       -115.1776665,
       36.1077861
      ],
      [
       -115.1777384,
       36.1078059
      ],
      [
       -115.1778254,
       36.1076263
      ],
      [
       -115.1782207,
       36.1076183
      ],
      [
       -115.1794488,
       36.1076079
      ],
      [
       -115.1795699,
       36.1076431
      ],
      [
       -115.1796355,
       36.1075861
      ],
      [
       -115.1796769,
       36.1076029
      ],
      [
       -115.1797142,
       36.1076125
      ],
      [
       -115.1797996,
       36.1075385
      ]
     ]
    ]
   }
  },
  {
   "type": "Feature",
   "id": 2,
   "properties": {
    "slug": "bellagio",
    "room": "Bellagio",
    "matched": "Bellagio Las Vegas",
    "method": "contains+name",
    "height": 120,
    "levels": 34
   },
   "geometry": {
    "type": "Polygon",
    "coordinates": [
     [
      [
       -115.1763353,
       36.1132058
      ],
      [
       -115.1762187,
       36.1136402
      ],
      [
       -115.1761136,
       36.1138371
      ],
      [
       -115.1761012,
       36.1138601
      ],
      [
       -115.1759862,
       36.1140754
      ],
      [
       -115.1762491,
       36.1141719
      ],
      [
       -115.1763815,
       36.1139348
      ],
      [
       -115.1764973,
       36.1137281
      ],
      [
       -115.1766268,
       36.1132377
      ],
      [
       -115.1775302,
       36.1132342
      ],
      [
       -115.1777684,
       36.1132333
      ],
      [
       -115.1777741,
       36.1129884
      ],
      [
       -115.1775302,
       36.1129896
      ],
      [
       -115.1766264,
       36.1129938
      ],
      [
       -115.1764946,
       36.1124984
      ],
      [
       -115.1763802,
       36.1122886
      ],
      [
       -115.1762514,
       36.1120524
      ],
      [
       -115.1759805,
       36.1121513
      ],
      [
       -115.176113,
       36.1123872
      ],
      [
       -115.176151,
       36.1124548
      ],
      [
       -115.1762217,
       36.1125807
      ],
      [
       -115.1763388,
       36.1130216
      ],
      [
       -115.1763127,
       36.1130272
      ],
      [
       -115.1762786,
       36.1130443
      ],
      [
       -115.1762537,
       36.1130698
      ],
      [
       -115.1762415,
       36.1130987
      ],
      [
       -115.176242,
       36.1131312
      ],
      [
       -115.1762561,
       36.1131615
      ],
      [
       -115.1762824,
       36.1131861
      ],
      [
       -115.1763174,
       36.113202
      ],
      [
       -115.1763353,
       36.1132058
      ]
     ]
    ]
   }
  },
  {
   "type": "Feature",
   "id": 3,
   "properties": {
    "slug": "boulder-station",
    "room": "Boulder Station",
    "matched": "Boulder Station",
    "method": "contains+name",
    "height": null,
    "levels": null
   },
   "geometry": {
    "type": "Polygon",
    "coordinates": [
     [
      [
       -115.0851391,
       36.1327229
      ],
      [
       -115.0853253,
       36.1328889
      ],
      [
       -115.0853456,
       36.132907
      ],
      [
       -115.0854448,
       36.1329048
      ],
      [
       -115.0855682,
       36.1330218
      ],
      [
       -115.0855602,
       36.1330998
      ],
      [
       -115.0860215,
       36.1335092
      ],
      [
       -115.0860725,
       36.1335201
      ],
      [
       -115.0863326,
       36.1337627
      ],
      [
       -115.085992,
       36.1339858
      ],
      [
       -115.0860188,
       36.1340118
      ],
      [
       -115.0855333,
       36.1343627
      ],
      [
       -115.0854471,
       36.134275
      ],
      [
       -115.0853885,
       36.1342154
      ],
      [
       -115.0852973,
       36.1342089
      ],
      [
       -115.0852383,
       36.1342566
      ],
      [
       -115.0851552,
       36.1341873
      ],
      [
       -115.0848494,
       36.1344277
      ],
      [
       -115.0847045,
       36.1345469
      ],
      [
       -115.0847072,
       36.134601
      ],
      [
       -115.0846616,
       36.1346465
      ],
      [
       -115.0846053,
       36.13464
      ],
      [
       -115.0845785,
       36.1348935
      ],
      [
       -115.0841713,
       36.1348698
      ],
      [
       -115.0841792,
       36.1347186
      ],
      [
       -115.0843435,
       36.1347241
      ],
      [
       -115.0843498,
       36.1346013
      ],
      [
       -115.0843884,
       36.1346026
      ],
      [
       -115.0844001,
       36.1343754
      ],
      [
       -115.084357,
       36.1343739
      ],
      [
       -115.0843636,
       36.1342453
      ],
      [
       -115.0843318,
       36.1342442
      ],
      [
       -115.0843371,
       36.1341396
      ],
      [
       -115.084306,
       36.1341386
      ],
      [
       -115.0843113,
       36.1340343
      ],
      [
       -115.0842352,
       36.133962
      ],
      [
       -115.0843156,
       36.1338948
      ],
      [
       -115.0842191,
       36.1338038
      ],
      [
       -115.0842503,
       36.1326887
      ],
      [
       -115.0846089,
       36.1326954
      ],
      [
       -115.08472,
       36.1327019
      ],
      [
       -115.0851215,
       36.1327218
      ],
      [
       -115.0851391,
       36.1327229
      ]
     ]
    ]
   }
  },
  {
   "type": "Feature",
   "id": 4,
   "properties": {
    "slug": "caesars-palace",
    "room": "Caesars Palace",
    "matched": "Caesars Palace",
    "method": "contains+name",
    "height": null,
    "levels": null
   },
   "geometry": {
    "type": "Polygon",
    "coordinates": [
     [
      [
       -115.1753101,
       36.1178379
      ],
      [
       -115.1754232,
       36.1179924
      ],
      [
       -115.1754497,
       36.1180276
      ],
      [
       -115.1753558,
       36.1181424
      ],
      [
       -115.1754039,
       36.1182007
      ],
      [
       -115.1755949,
       36.1181534
      ],
      [
       -115.1757124,
       36.1181255
      ],
      [
       -115.1757524,
       36.118116
      ],
      [
       -115.1758737,
       36.1180876
      ],
      [
       -115.1760442,
       36.118064
      ],
      [
       -115.1762004,
       36.1180957
      ],
      [
       -115.1762044,
       36.1180312
      ],
      [
       -115.1762318,
       36.1172575
      ],
      [
       -115.177593,
       36.1172908
      ],
      [
       -115.1776855,
       36.1172954
      ],
      [
       -115.1776986,
       36.116946
      ],
      [
       -115.1781702,
       36.1169628
      ],
      [
       -115.1781668,
       36.1170554
      ],
      [
       -115.1781616,
       36.1172004
      ],
      [
       -115.1789799,
       36.1172245
      ],
      [
       -115.1789807,
       36.1171815
      ],
      [
       -115.1793907,
       36.1171917
      ],
      [
       -115.1793967,
       36.1170887
      ],
      [
       -115.1794537,
       36.1161182
      ],
      [
       -115.1793052,
       36.1155784
      ],
      [
       -115.1782892,
       36.1155521
      ],
      [
       -115.1782674,
       36.1166208
      ],
      [
       -115.1781803,
       36.1166179
      ],
      [
       -115.1766226,
       36.1165655
      ],
      [
       -115.1766223,
       36.1165311
      ],
      [
       -115.1764713,
       36.1165283
      ],
      [
       -115.1765066,
       36.1165028
      ],
      [
       -115.1764494,
       36.1164586
      ],
      [
       -115.1764573,
       36.1164053
      ],
      [
       -115.1765514,
       36.1163432
      ],
      [
       -115.1764332,
       36.1162495
      ],
      [
       -115.1763541,
       36.1163187
      ],
      [
       -115.1762911,
       36.1163202
      ],
      [
       -115.1762396,
       36.1162717
      ],
      [
       -115.1761847,
       36.1163133
      ],
      [
       -115.1761301,
       36.1162726
      ],
      [
       -115.1760776,
       36.1163109
      ],
      [
       -115.1759875,
       36.1162701
      ],
      [
       -115.1759772,
       36.1162789
      ],
      [
       -115.1759017,
       36.1162418
      ],
      [
       -115.1759953,
       36.1161147
      ],
      [
       -115.1760785,
       36.1161885
      ],
      [
       -115.1762798,
       36.1161993
      ],
      [
       -115.1762772,
       36.1161155
      ],
      [
       -115.1763631,
       36.1161174
      ],
      [
       -115.1763654,
       36.1160336
      ],
      [
       -115.1763983,
       36.116033
      ],
      [
       -115.1763999,
       36.1158824
      ],
      [
       -115.1763712,
       36.1158815
      ],
      [
       -115.176373,
       36.1157964
      ],
      [
       -115.1762882,
       36.1157945
      ],
      [
       -115.1763063,
       36.115484
      ],
      [
       -115.1763329,
       36.1154842
      ],
      [
       -115.1767683,
       36.115496
      ],
      [
       -115.1767684,
       36.1155185
      ],
      [
       -115.1771802,
       36.1155291
      ],
      [
       -115.1771819,
       36.1155059
      ],
      [
       -115.1776159,
       36.1155166
      ],
      [
       -115.1776224,
       36.1153094
      ],
      [
       -115.1776257,
       36.1152354
      ],
      [
       -115.1771912,
       36.1152247
      ],
      [
       -115.1771921,
       36.1151991
      ],
      [
       -115.1767809,
       36.1151928
      ],
      [
       -115.1767812,
       36.1152096
      ],
      [
       -115.1763493,
       36.1152014
      ],
      [
       -115.176344,
       36.1152926
      ],
      [
       -115.1761622,
       36.1152819
      ],
      [
       -115.1761666,
       36.1151632
      ],
      [
       -115.1759977,
       36.1151591
      ],
      [
       -115.175999,
       36.1151258
      ],
      [
       -115.1755684,
       36.1151154
      ],
      [
       -115.1755699,
       36.1150731
      ],
      [
       -115.175061,
       36.1150607
      ],
      [
       -115.1750594,
       36.1151031
      ],
      [
       -115.1746955,
       36.1150942
      ],
      [
       -115.1746944,
       36.1151256
      ],
      [
       -115.1745984,
       36.1151227
      ],
      [
       -115.1746027,
       36.1150157
      ],
      [
       -115.1745288,
       36.1150147
      ],
      [
       -115.1744618,
       36.1150138
      ],
      [
       -115.1744333,
       36.1154496
      ],
      [
       -115.1743421,
       36.1154496
      ],
      [
       -115.1743269,
       36.1157336
      ],
      [
       -115.1743234,
       36.1158072
      ],
      [
       -115.1744038,
       36.1158115
      ],
      [
       -115.1744926,
       36.1159211
      ],
      [
       -115.1744699,
       36.1159315
      ],
      [
       -115.1744098,
       36.1159591
      ],
      [
       -115.1743973,
       36.1159648
      ],
      [
       -115.1743038,
       36.1160077
      ],
      [
       -115.1743438,
       36.1160674
      ],
      [
       -115.174355,
       36.1161106
      ],
      [
       -115.1743581,
       36.1161463
      ],
      [
       -115.1743552,
       36.1161828
      ],
      [
       -115.1743436,
       36.1162179
      ],
      [
       -115.1743243,
       36.116252
      ],
      [
       -115.1742922,
       36.1162963
      ],
      [
       -115.1744435,
       36.1163715
      ],
      [
       -115.1744735,
       36.116388
      ],
      [
       -115.1744422,
       36.1164246
      ],
      [
       -115.1743791,
       36.1164785
      ],
      [
       -115.1743434,
       36.1164978
      ],
      [
       -115.1742892,
       36.1165236
      ],
      [
       -115.1742758,
       36.1165299
      ],
      [
       -115.1742791,
       36.1165374
      ],
      [
       -115.1742906,
       36.116567
      ],
      [
       -115.1740669,
       36.1166346
      ],
      [
       -115.1741628,
       36.116828
      ],
      [
       -115.1739135,
       36.1169052
      ],
      [
       -115.1739087,
       36.1170313
      ],
      [
       -115.1738541,
       36.1170319
      ],
      [
       -115.1738522,
       36.1172428
      ],
      [
       -115.1739926,
       36.1172452
      ],
      [
       -115.173985,
       36.117305
      ],
      [
       -115.173936,
       36.1173071
      ],
      [
       -115.1739303,
       36.1173819
      ],
      [
       -115.1739959,
       36.1173852
      ],
      [
       -115.1739825,
       36.1175587
      ],
      [
       -115.1744446,
       36.1175662
      ],
      [
       -115.1744486,
       36.1175318
      ],
      [
       -115.1745015,
       36.1175315
      ],
      [
       -115.1745753,
       36.1175834
      ],
      [
       -115.1746745,
       36.1175314
      ],
      [
       -115.1747213,
       36.1175874
      ],
      [
       -115.1746307,
       36.1176329
      ],
      [
       -115.1745408,
       36.1177147
      ],
      [
       -115.1744912,
       36.1178049
      ],
      [
       -115.1744843,
       36.1178519
      ],
      [
       -115.174476,
       36.1179087
      ],
      [
       -115.174491,
       36.1179798
      ],
      [
       -115.1744954,
       36.1179988
      ],
      [
       -115.1745365,
       36.118072
      ],
      [
       -115.1745973,
       36.118135
      ],
      [
       -115.1747075,
       36.1181996
      ],
      [
       -115.1747984,
       36.1182264
      ],
      [
       -115.1748963,
       36.1182357
      ],
      [
       -115.1749974,
       36.1182257
      ],
      [
       -115.1750737,
       36.1182039
      ],
      [
       -115.1751533,
       36.1181647
      ],
      [
       -115.1752209,
       36.1181116
      ],
      [
       -115.1752683,
       36.1180538
      ],
      [
       -115.1753128,
       36.1179403
      ],
      [
       -115.1753101,
       36.1178379
      ]
     ]
    ]
   }
  },
  {
   "type": "Feature",
   "id": 5,
   "properties": {
    "slug": "golden-nugget",
    "room": "Golden Nugget",
    "matched": "Golden Nugget Las Vegas",
    "method": "contains+name",
    "height": null,
    "levels": null
   },
   "geometry": {
    "type": "Polygon",
    "coordinates": [
     [
      [
       -115.1454192,
       36.1696649
      ],
      [
       -115.1452905,
       36.1698593
      ],
      [
       -115.1452868,
       36.1698576
      ],
      [
       -115.1450988,
       36.169781
      ],
      [
       -115.1450041,
       36.1697419
      ],
      [
       -115.1449249,
       36.1698588
      ],
      [
       -115.1448702,
       36.1698354
      ],
      [
       -115.1448263,
       36.1698157
      ],
      [
       -115.1447805,
       36.1698857
      ],
      [
       -115.1446771,
       36.1700437
      ],
      [
       -115.1446559,
       36.1700762
      ],
      [
       -115.1446316,
       36.1700676
      ],
      [
       -115.144595,
       36.1701226
      ],
      [
       -115.1444941,
       36.1702893
      ],
      [
       -115.1442402,
       36.1706601
      ],
      [
       -115.1442984,
       36.1706853
      ],
      [
       -115.1451651,
       36.1710607
      ],
      [
       -115.1453814,
       36.1707293
      ],
      [
       -115.1454939,
       36.170777
      ],
      [
       -115.1455789,
       36.1708145
      ],
      [
       -115.1456053,
       36.1707747
      ],
      [
       -115.1456495,
       36.1707935
      ],
      [
       -115.1460664,
       36.1709708
      ],
      [
       -115.1462501,
       36.1706916
      ],
      [
       -115.1464177,
       36.1704382
      ],
      [
       -115.1464572,
       36.1703703
      ],
      [
       -115.1463798,
       36.1703349
      ],
      [
       -115.1458948,
       36.1701217
      ],
      [
       -115.1457206,
       36.170042
      ],
      [
       -115.1454583,
       36.1704383
      ],
      [
       -115.145131,
       36.1702971
      ],
      [
       -115.1455098,
       36.1697246
      ],
      [
       -115.1458521,
       36.1698723
      ],
      [
       -115.1461183,
       36.16947
      ],
      [
       -115.1464792,
       36.1689247
      ],
      [
       -115.1462908,
       36.1688434
      ],
      [
       -115.1456346,
       36.1685605
      ],
      [
       -115.1454547,
       36.1688324
      ],
      [
       -115.1458557,
       36.1690053
      ],
      [
       -115.1454192,
       36.1696649
      ]
     ]
    ]
   }
  },
  {
   "type": "Feature",
   "id": 6,
   "properties": {
    "slug": "green-valley-ranch",
    "room": "Green Valley Ranch",
    "matched": "Green Valley Ranch Resort Spa & Casino",
    "method": "contains+name",
    "height": null,
    "levels": 6
   },
   "geometry": {
    "type": "Polygon",
    "coordinates": [
     [
      [
       -115.0885425,
       36.0202276
      ],
      [
       -115.0885057,
       36.0202363
      ],
      [
       -115.0884923,
       36.0202569
      ],
      [
       -115.08856,
       36.0204698
      ],
      [
       -115.0885468,
       36.0204726
      ],
      [
       -115.0885599,
       36.0205136
      ],
      [
       -115.0885476,
       36.0205162
      ],
      [
       -115.088584,
       36.0206304
      ],
      [
       -115.0885665,
       36.020634
      ],
      [
       -115.0885975,
       36.0207314
      ],
      [
       -115.0886136,
       36.020728
      ],
      [
       -115.0886318,
       36.0207852
      ],
      [
       -115.0886586,
       36.0207982
      ],
      [
       -115.0887001,
       36.0209349
      ],
      [
       -115.088727,
       36.0209511
      ],
      [
       -115.0887647,
       36.0210659
      ],
      [
       -115.0887941,
       36.0210846
      ],
      [
       -115.0887672,
       36.0211182
      ],
      [
       -115.0887992,
       36.0212137
      ],
      [
       -115.0887935,
       36.021215
      ],
      [
       -115.0888327,
       36.0213319
      ],
      [
       -115.0888261,
       36.0213333
      ],
      [
       -115.0888635,
       36.0214443
      ],
      [
       -115.0888792,
       36.0214408
      ],
      [
       -115.0889226,
       36.0215699
      ],
      [
       -115.0889674,
       36.021703
      ],
      [
       -115.0890378,
       36.0216875
      ],
      [
       -115.0892079,
       36.02165
      ],
      [
       -115.0892284,
       36.0217108
      ],
      [
       -115.0893967,
       36.0216737
      ],
      [
       -115.0894049,
       36.021686
      ],
      [
       -115.0895237,
       36.0216586
      ],
      [
       -115.0895181,
       36.0216427
      ],
      [
       -115.0895567,
       36.0216338
      ],
      [
       -115.0895395,
       36.021585
      ],
      [
       -115.089876,
       36.0214998
      ],
      [
       -115.0899922,
       36.021468
      ],
      [
       -115.0902537,
       36.0214056
      ],
      [
       -115.0903567,
       36.0213845
      ],
      [
       -115.0902881,
       36.0211788
      ],
      [
       -115.0903054,
       36.0211751
      ],
      [
       -115.0902747,
       36.0210836
      ],
      [
       -115.0907111,
       36.0209852
      ],
      [
       -115.0907156,
       36.0209984
      ],
      [
       -115.0908154,
       36.0209761
      ],
      [
       -115.0907945,
       36.0209153
      ],
      [
       -115.0907756,
       36.0209195
      ],
      [
       -115.090737,
       36.0208069
      ],
      [
       -115.0908,
       36.0207125
      ],
      [
       -115.0907921,
       36.0206872
      ],
      [
       -115.0908331,
       36.0206788
      ],
      [
       -115.0907899,
       36.0205447
      ],
      [
       -115.0907623,
       36.0204538
      ],
      [
       -115.0908226,
       36.0204421
      ],
      [
       -115.0908055,
       36.0203874
      ],
      [
       -115.0908229,
       36.0203838
      ],
      [
       -115.090801,
       36.0203154
      ],
      [
       -115.0907791,
       36.02032
      ],
      [
       -115.0907406,
       36.0202083
      ],
      [
       -115.0908182,
       36.0201899
      ],
      [
       -115.0907943,
       36.0201121
      ],
      [
       -115.0907462,
       36.019968
      ],
      [
       -115.0907321,
       36.019971
      ],
      [
       -115.0907243,
       36.0199488
      ],
      [
       -115.0906907,
       36.0198455
      ],
      [
       -115.0907818,
       36.0198258
      ],
      [
       -115.0907407,
       36.0197015
      ],
      [
       -115.0906384,
       36.0197236
      ],
      [
       -115.0906139,
       36.0196496
      ],
      [
       -115.0905374,
       36.0196662
      ],
      [
       -115.0905374,
       36.0196511
      ],
      [
       -115.0904279,
       36.0196763
      ],
      [
       -115.0904318,
       36.0196872
      ],
      [
       -115.0901796,
       36.0197449
      ],
      [
       -115.0901721,
       36.019725
      ],
      [
       -115.0900529,
       36.0197507
      ],
      [
       -115.0900669,
       36.0197908
      ],
      [
       -115.0899557,
       36.0198158
      ],
      [
       -115.089959,
       36.0198251
      ],
      [
       -115.0898081,
       36.01986
      ],
      [
       -115.0895857,
       36.0199115
      ],
      [
       -115.0895914,
       36.0199278
      ],
      [
       -115.0893976,
       36.0199731
      ],
      [
       -115.0894143,
       36.0200198
      ],
      [
       -115.0892234,
       36.0200645
      ],
      [
       -115.0892329,
       36.0200909
      ],
      [
       -115.0891547,
       36.0201093
      ],
      [
       -115.089134,
       36.0200519
      ],
      [
       -115.0889112,
       36.0201046
      ],
      [
       -115.0889197,
       36.020128
      ],
      [
       -115.0887464,
       36.0201691
      ],
      [
       -115.0887316,
       36.0201284
      ],
      [
       -115.0885243,
       36.0201777
      ],
      [
       -115.0885425,
       36.0202276
      ]
     ]
    ]
   }
  },
  {
   "type": "Feature",
   "id": 7,
   "properties": {
    "slug": "horseshoe",
    "room": "Horseshoe",
    "matched": "Horseshoe Las Vegas",
    "method": "contains+name",
    "height": null,
    "levels": 26
   },
   "geometry": {
    "type": "Polygon",
    "coordinates": [
     [
      [
       -115.1674265,
       36.1141572
      ],
      [
       -115.1677707,
       36.1141603
      ],
      [
       -115.1677702,
       36.1141906
      ],
      [
       -115.1678281,
       36.1142192
      ],
      [
       -115.1678284,
       36.1142959
      ],
      [
       -115.1687932,
       36.1143175
      ],
      [
       -115.1696589,
       36.1143369
      ],
      [
       -115.1701187,
       36.1143472
      ],
      [
       -115.1705686,
       36.1143607
      ],
      [
       -115.1705762,
       36.1141271
      ],
      [
       -115.1705763,
       36.1141232
      ],
      [
       -115.1705855,
       36.1138406
      ],
      [
       -115.1707104,
       36.1138446
      ],
      [
       -115.1707096,
       36.113758
      ],
      [
       -115.1709408,
       36.1136115
      ],
      [
       -115.1709458,
       36.1135461
      ],
      [
       -115.170828,
       36.1135462
      ],
      [
       -115.170828,
       36.1135288
      ],
      [
       -115.1707002,
       36.113529
      ],
      [
       -115.1707001,
       36.1134725
      ],
      [
       -115.1706407,
       36.1134481
      ],
      [
       -115.1706414,
       36.1134196
      ],
      [
       -115.1707028,
       36.1133896
      ],
      [
       -115.1707028,
       36.1133349
      ],
      [
       -115.1706998,
       36.1132736
      ],
      [
       -115.1699031,
       36.1132504
      ],
      [
       -115.1699004,
       36.1132959
      ],
      [
       -115.169621,
       36.1132914
      ],
      [
       -115.1694917,
       36.1132892
      ],
      [
       -115.1690034,
       36.1132813
      ],
      [
       -115.1689693,
       36.1132805
      ],
      [
       -115.1685566,
       36.1132742
      ],
      [
       -115.1684761,
       36.1132851
      ],
      [
       -115.168084,
       36.1132747
      ],
      [
       -115.167733,
       36.1132656
      ],
      [
       -115.1675071,
       36.1132588
      ],
      [
       -115.1674623,
       36.1132571
      ],
      [
       -115.1674752,
       36.1129157
      ],
      [
       -115.16751,
       36.1129166
      ],
      [
       -115.16751,
       36.1127676
      ],
      [
       -115.1675103,
       36.1127055
      ],
      [
       -115.1674853,
       36.1127063
      ],
      [
       -115.1674683,
       36.1127068
      ],
      [
       -115.1674667,
       36.1126055
      ],
      [
       -115.1674168,
       36.1126045
      ],
      [
       -115.1674049,
       36.1129612
      ],
      [
       -115.1672629,
       36.1129621
      ],
      [
       -115.1671985,
       36.113002
      ],
      [
       -115.1671964,
       36.1130908
      ],
      [
       -115.1668811,
       36.1130845
      ],
      [
       -115.1668773,
       36.1131492
      ],
      [
       -115.1669161,
       36.1131487
      ],
      [
       -115.1669111,
       36.1133227
      ],
      [
       -115.167139,
       36.1133255
      ],
      [
       -115.1671397,
       36.1132827
      ],
      [
       -115.1673844,
       36.1132862
      ],
      [
       -115.1673718,
       36.1134168
      ],
      [
       -115.167412,
       36.113418
      ],
      [
       -115.1674096,
       36.1134914
      ],
      [
       -115.1673487,
       36.1134926
      ],
      [
       -115.1673291,
       36.1138247
      ],
      [
       -115.1673116,
       36.1138234
      ],
      [
       -115.1673097,
       36.113988
      ],
      [
       -115.1674387,
       36.1139923
      ],
      [
       -115.1674265,
       36.1141572
      ]
     ]
    ]
   }
  },
  {
   "type": "Feature",
   "id": 8,
   "properties": {
    "slug": "mandalay-bay",
    "room": "Mandalay Bay",
    "matched": "Mandalay Bay",
    "method": "contains+name",
    "height": null,
    "levels": null
   },
   "geometry": {
    "type": "Polygon",
    "coordinates": [
     [
      [
       -115.1771305,
       36.0926676
      ],
      [
       -115.1771301,
       36.0926315
      ],
      [
       -115.1771315,
       36.0914753
      ],
      [
       -115.1774665,
       36.0914738
      ],
      [
       -115.1774637,
       36.0910621
      ],
      [
       -115.1769568,
       36.0910625
      ],
      [
       -115.1768586,
       36.0910779
      ],
      [
       -115.1765743,
       36.0912081
      ],
      [
       -115.1764617,
       36.0910475
      ],
      [
       -115.1764161,
       36.0910432
      ],
      [
       -115.1763088,
       36.0910779
      ],
      [
       -115.1762847,
       36.0910985
      ],
      [
       -115.1762552,
       36.0911451
      ],
      [
       -115.1763054,
       36.0912169
      ],
      [
       -115.1761743,
       36.0912767
      ],
      [
       -115.1760075,
       36.0910381
      ],
      [
       -115.1758397,
       36.0911147
      ],
      [
       -115.1757882,
       36.0910409
      ],
      [
       -115.1755352,
       36.0911563
      ],
      [
       -115.1756009,
       36.0912503
      ],
      [
       -115.1754667,
       36.0913115
      ],
      [
       -115.1753634,
       36.0911637
      ],
      [
       -115.175045,
       36.091309
      ],
      [
       -115.1750981,
       36.0913849
      ],
      [
       -115.175011,
       36.0914247
      ],
      [
       -115.1750755,
       36.0915171
      ],
      [
       -115.1749101,
       36.0915926
      ],
      [
       -115.1748431,
       36.091592
      ],
      [
       -115.1747908,
       36.0915916
      ],
      [
       -115.1746506,
       36.0916073
      ],
      [
       -115.1748098,
       36.0914659
      ],
      [
       -115.1747152,
       36.0914219
      ],
      [
       -115.1747428,
       36.0913831
      ],
      [
       -115.1743465,
       36.0911991
      ],
      [
       -115.1746392,
       36.0907874
      ],
      [
       -115.1748527,
       36.0907873
      ],
      [
       -115.1748521,
       36.0900323
      ],
      [
       -115.1739642,
       36.0900328
      ],
      [
       -115.1739645,
       36.0904176
      ],
      [
       -115.1739412,
       36.0904176
      ],
      [
       -115.1739413,
       36.090575
      ],
      [
       -115.1743377,
       36.0907649
      ],
      [
       -115.1742458,
       36.0908901
      ],
      [
       -115.1741506,
       36.0910212
      ],
      [
       -115.1740634,
       36.0911424
      ],
      [
       -115.1736511,
       36.0909489
      ],
      [
       -115.1735909,
       36.0910326
      ],
      [
       -115.1739497,
       36.0912011
      ],
      [
       -115.1739035,
       36.0912655
      ],
      [
       -115.1737262,
       36.0915121
      ],
      [
       -115.174131,
       36.0917021
      ],
      [
       -115.1740941,
       36.0917534
      ],
      [
       -115.1744286,
       36.0919104
      ],
      [
       -115.1743844,
       36.0919719
      ],
      [
       -115.1744568,
       36.0920727
      ],
      [
       -115.1745533,
       36.0920728
      ],
      [
       -115.1745533,
       36.0921163
      ],
      [
       -115.1745173,
       36.0921162
      ],
      [
       -115.1745171,
       36.0923752
      ],
      [
       -115.1745751,
       36.0923752
      ],
      [
       -115.1745732,
       36.0926178
      ],
      [
       -115.1745656,
       36.0927892
      ],
      [
       -115.1745672,
       36.0928162
      ],
      [
       -115.1745667,
       36.0928344
      ],
      [
       -115.1745644,
       36.0928996
      ],
      [
       -115.1747122,
       36.0929007
      ],
      [
       -115.1745628,
       36.0930634
      ],
      [
       -115.174535,
       36.0930475
      ],
      [
       -115.1744801,
       36.0931049
      ],
      [
       -115.1745072,
       36.0931224
      ],
      [
       -115.1744923,
       36.0931402
      ],
      [
       -115.1745377,
       36.0931693
      ],
      [
       -115.17455,
       36.0931756
      ],
      [
       -115.1746152,
       36.0932155
      ],
      [
       -115.174651,
       36.0932358
      ],
      [
       -115.1746717,
       36.093248
      ],
      [
       -115.1748033,
       36.0931017
      ],
      [
       -115.1748362,
       36.0930686
      ],
      [
       -115.1749059,
       36.0931029
      ],
      [
       -115.1749343,
       36.0931517
      ],
      [
       -115.1750046,
       36.0931734
      ],
      [
       -115.175072,
       36.0931491
      ],
      [
       -115.1751005,
       36.0930939
      ],
      [
       -115.1750808,
       36.0930484
      ],
      [
       -115.1750793,
       36.0929306
      ],
      [
       -115.1751459,
       36.0929307
      ],
      [
       -115.1751498,
       36.0930641
      ],
      [
       -115.1754611,
       36.0930655
      ],
      [
       -115.1754603,
       36.0933274
      ],
      [
       -115.1754899,
       36.0933274
      ],
      [
       -115.1754898,
       36.0933733
      ],
      [
       -115.1756642,
       36.0933736
      ],
      [
       -115.1756637,
       36.0935754
      ],
      [
       -115.1756814,
       36.0935755
      ],
      [
       -115.1756814,
       36.0935835
      ],
      [
       -115.1757803,
       36.0935836
      ],
      [
       -115.1757803,
       36.0935928
      ],
      [
       -115.1757802,
       36.0936313
      ],
      [
       -115.1757502,
       36.0936312
      ],
      [
       -115.1757502,
       36.093645
      ],
      [
       -115.1757501,
       36.0937653
      ],
      [
       -115.1757501,
       36.0938117
      ],
      [
       -115.1757501,
       36.0938175
      ],
      [
       -115.1757803,
       36.0938175
      ],
      [
       -115.1757804,
       36.0938653
      ],
      [
       -115.1756842,
       36.0938656
      ],
      [
       -115.1756854,
       36.0942312
      ],
      [
       -115.1756857,
       36.0943301
      ],
      [
       -115.1756881,
       36.0945778
      ],
      [
       -115.1757855,
       36.0945772
      ],
      [
       -115.1757872,
       36.094654
      ],
      [
       -115.1759548,
       36.09465
      ],
      [
       -115.1759587,
       36.0945639
      ],
      [
       -115.1761002,
       36.0945641
      ],
      [
       -115.1761003,
       36.0945403
      ],
      [
       -115.1769231,
       36.0945415
      ],
      [
       -115.1769259,
       36.0938195
      ],
      [
       -115.1769261,
       36.0937628
      ],
      [
       -115.1769268,
       36.0936166
      ],
      [
       -115.1769271,
       36.0935551
      ],
      [
       -115.1769273,
       36.0934758
      ],
      [
       -115.1772109,
       36.0934744
      ],
      [
       -115.1772106,
       36.0934396
      ],
      [
       -115.1774193,
       36.093439
      ],
      [
       -115.1774147,
       36.0930163
      ],
      [
       -115.1772072,
       36.0930166
      ],
      [
       -115.1772069,
       36.0929693
      ],
      [
       -115.1768031,
       36.0929715
      ],
      [
       -115.1768026,
       36.0929191
      ],
      [
       -115.1767976,
       36.0926646
      ],
      [
       -115.1771305,
       36.0926676
      ]
     ]
    ]
   }
  },
  {
   "type": "Feature",
   "id": 9,
   "properties": {
    "slug": "mgm-grand",
    "room": "MGM Grand",
    "matched": "Hotel MGM Grand Las Vegas",
    "method": "contains+name",
    "height": null,
    "levels": 2
   },
   "geometry": {
    "type": "Polygon",
    "coordinates": [
     [
      [
       -115.1723634,
       36.1020777
      ],
      [
       -115.1723579,
       36.1021955
      ],
      [
       -115.172125,
       36.1021884
      ],
      [
       -115.1721215,
       36.102262
      ],
      [
       -115.1720329,
       36.1022593
      ],
      [
       -115.1719649,
       36.1023344
      ],
      [
       -115.1719637,
       36.1024906
      ],
      [
       -115.1707768,
       36.1024905
      ],
      [
       -115.1706859,
       36.1024842
      ],
      [
       -115.1706852,
       36.1030364
      ],
      [
       -115.1705941,
       36.1030364
      ],
      [
       -115.1705981,
       36.1032562
      ],
      [
       -115.1705997,
       36.1033457
      ],
      [
       -115.1705986,
       36.1035714
      ],
      [
       -115.1701903,
       36.1035732
      ],
      [
       -115.1700265,
       36.1035719
      ],
      [
       -115.1700265,
       36.1036789
      ],
      [
       -115.1700265,
       36.1038153
      ],
      [
       -115.1698125,
       36.1038153
      ],
      [
       -115.1697435,
       36.1038153
      ],
      [
       -115.1696363,
       36.1038154
      ],
      [
       -115.1696363,
       36.1037462
      ],
      [
       -115.1696353,
       36.103637
      ],
      [
       -115.1696327,
       36.1035752
      ],
      [
       -115.1696286,
       36.1034774
      ],
      [
       -115.1694674,
       36.1034782
      ],
      [
       -115.1694234,
       36.1035106
      ],
      [
       -115.1692723,
       36.1035111
      ],
      [
       -115.1692302,
       36.1034764
      ],
      [
       -115.1692303,
       36.1034421
      ],
      [
       -115.1687825,
       36.1034418
      ],
      [
       -115.1687819,
       36.1039821
      ],
      [
       -115.1687163,
       36.1039821
      ],
      [
       -115.1686825,
       36.1039821
      ],
      [
       -115.1683079,
       36.1039826
      ],
      [
       -115.1678215,
       36.1039828
      ],
      [
       -115.1678012,
       36.1039953
      ],
      [
       -115.1676949,
       36.1040605
      ],
      [
       -115.1675976,
       36.1041202
      ],
      [
       -115.1674961,
       36.1041826
      ],
      [
       -115.1674867,
       36.1041883
      ],
      [
       -115.1674674,
       36.1041997
      ],
      [
       -115.1674438,
       36.1042135
      ],
      [
       -115.1673596,
       36.1042663
      ],
      [
       -115.1673089,
       36.1042697
      ],
      [
       -115.1672613,
       36.1042554
      ],
      [
       -115.1672058,
       36.1042108
      ],
      [
       -115.16719,
       36.104187
      ],
      [
       -115.16718,
       36.1041541
      ],
      [
       -115.1671813,
       36.1041126
      ],
      [
       -115.1671853,
       36.1040932
      ],
      [
       -115.1672037,
       36.1040774
      ],
      [
       -115.167247,
       36.1040483
      ],
      [
       -115.167378,
       36.103965
      ],
      [
       -115.1675506,
       36.1038551
      ],
      [
       -115.1676443,
       36.1037954
      ],
      [
       -115.1676507,
       36.1032943
      ],
      [
       -115.1677602,
       36.1032952
      ],
      [
       -115.167761,
       36.1031998
      ],
      [
       -115.1681104,
       36.1032027
      ],
      [
       -115.1681188,
       36.1025417
      ],
      [
       -115.1680679,
       36.1025413
      ],
      [
       -115.1680072,
       36.1024902
      ],
      [
       -115.168006,
       36.1023761
      ],
      [
       -115.1680534,
       36.1023344
      ],
      [
       -115.1683837,
       36.102332
      ],
      [
       -115.1683821,
       36.1021929
      ],
      [
       -115.1684763,
       36.1021922
      ],
      [
       -115.1684753,
       36.1021098
      ],
      [
       -115.1685575,
       36.1020447
      ],
      [
       -115.1687184,
       36.1019167
      ],
      [
       -115.1688609,
       36.1018033
      ],
      [
       -115.1692159,
       36.1018022
      ],
      [
       -115.1692139,
       36.1013808
      ],
      [
       -115.169268,
       36.1013409
      ],
      [
       -115.1694101,
       36.1013415
      ],
      [
       -115.1694571,
       36.1013856
      ],
      [
       -115.1694572,
       36.1014205
      ],
      [
       -115.1694585,
       36.101805
      ],
      [
       -115.1696128,
       36.1018047
      ],
      [
       -115.169611,
       36.1012635
      ],
      [
       -115.1700627,
       36.1012625
      ],
      [
       -115.1700628,
       36.1013076
      ],
      [
       -115.1700876,
       36.1013272
      ],
      [
       -115.1712268,
       36.1013265
      ],
      [
       -115.1712268,
       36.1012557
      ],
      [
       -115.1712268,
       36.1012408
      ],
      [
       -115.1712065,
       36.1012408
      ],
      [
       -115.1711723,
       36.1012159
      ],
      [
       -115.171185,
       36.1011926
      ],
      [
       -115.1712128,
       36.1011943
      ],
      [
       -115.17124,
       36.1011895
      ],
      [
       -115.1712837,
       36.1011631
      ],
      [
       -115.1713044,
       36.1011856
      ],
      [
       -115.1713459,
       36.1011899
      ],
      [
       -115.1713803,
       36.1011848
      ],
      [
       -115.171412,
       36.101173
      ],
      [
       -115.1714391,
       36.1011552
      ],
      [
       -115.171471,
       36.1011672
      ],
      [
       -115.1714598,
       36.1011867
      ],
      [
       -115.1715079,
       36.1012048
      ],
      [
       -115.1715473,
       36.1012045
      ],
      [
       -115.1715856,
       36.1011968
      ],
      [
       -115.1716205,
       36.101182
      ],
      [
       -115.171657,
       36.1011958
      ],
      [
       -115.1717266,
       36.1011986
      ],
      [
       -115.1717369,
       36.1011972
      ],
      [
       -115.1717741,
       36.1011847
      ],
      [
       -115.1717969,
       36.101169
      ],
      [
       -115.1718442,
       36.1011885
      ],
      [
       -115.1718968,
       36.101194
      ],
      [
       -115.1719719,
       36.1011587
      ],
      [
       -115.1720125,
       36.1011838
      ],
      [
       -115.1720597,
       36.1011994
      ],
      [
       -115.1720973,
       36.1011891
      ],
      [
       -115.1721227,
       36.101164
      ],
      [
       -115.1721955,
       36.1012122
      ],
      [
       -115.1723015,
       36.1012521
      ],
      [
       -115.1722976,
       36.1012809
      ],
      [
       -115.1723055,
       36.1013088
      ],
      [
       -115.1723241,
       36.101333
      ],
      [
       -115.1723505,
       36.1013507
      ],
      [
       -115.1723827,
       36.1013609
      ],
      [
       -115.1724154,
       36.1013624
      ],
      [
       -115.1724466,
       36.1013561
      ],
      [
       -115.1724643,
       36.1014317
      ],
      [
       -115.1725187,
       36.1015123
      ],
      [
       -115.1725194,
       36.1015377
      ],
      [
       -115.1725063,
       36.1015759
      ],
      [
       -115.1725062,
       36.1015911
      ],
      [
       -115.1725062,
       36.1016034
      ],
      [
       -115.1725061,
       36.1016154
      ],
      [
       -115.1725187,
       36.1016537
      ],
      [
       -115.1725194,
       36.101684
      ],
      [
       -115.1724812,
       36.1017479
      ],
      [
       -115.1724449,
       36.1017454
      ],
      [
       -115.1724368,
       36.1018217
      ],
      [
       -115.1724353,
       36.1018362
      ],
      [
       -115.1724542,
       36.1018375
      ],
      [
       -115.1724824,
       36.1018058
      ],
      [
       -115.1725035,
       36.101818
      ],
      [
       -115.1724811,
       36.1018431
      ],
      [
       -115.1724676,
       36.1018722
      ],
      [
       -115.172465,
       36.1019036
      ],
      [
       -115.17244,
       36.1019022
      ],
      [
       -115.1724375,
       36.1019311
      ],
      [
       -115.1724192,
       36.1019323
      ],
      [
       -115.1723863,
       36.1019302
      ],
      [
       -115.1723809,
       36.1019855
      ],
      [
       -115.1723782,
       36.1020126
      ],
      [
       -115.1724529,
       36.1020174
      ],
      [
       -115.1724673,
       36.1020065
      ],
      [
       -115.1724903,
       36.1020262
      ],
      [
       -115.1724607,
       36.1020486
      ],
      [
       -115.1724468,
       36.1020764
      ],
      [
       -115.1724454,
       36.1021067
      ],
      [
       -115.1724225,
       36.102106
      ],
      [
       -115.1724238,
       36.1020796
      ],
      [
       -115.1723634,
       36.1020777
      ]
     ]
    ]
   }
  },
  {
   "type": "Feature",
   "id": 10,
   "properties": {
    "slug": "red-rock",
    "room": "Red Rock Resort",
    "matched": null,
    "method": "contains",
    "height": null,
    "levels": null
   },
   "geometry": {
    "type": "Polygon",
    "coordinates": [
     [
      [
       -115.3349799,
       36.1569282
      ],
      [
       -115.3347199,
       36.156924
      ],
      [
       -115.3346636,
       36.1569634
      ],
      [
       -115.3345465,
       36.1568543
      ],
      [
       -115.3344911,
       36.1568947
      ],
      [
       -115.3344384,
       36.156939
      ],
      [
       -115.3345595,
       36.1570656
      ],
      [
       -115.3343196,
       36.157221
      ],
      [
       -115.3342043,
       36.1571185
      ],
      [
       -115.3339794,
       36.1571039
      ],
      [
       -115.3336177,
       36.1571131
      ],
      [
       -115.3336137,
       36.1569609
      ],
      [
       -115.3335395,
       36.1569642
      ],
      [
       -115.3334677,
       36.1569675
      ],
      [
       -115.3334681,
       36.1570694
      ],
      [
       -115.3331466,
       36.1570635
      ],
      [
       -115.3330833,
       36.1571015
      ],
      [
       -115.3330109,
       36.1571002
      ],
      [
       -115.3329495,
       36.1570642
      ],
      [
       -115.3329441,
       36.1570439
      ],
      [
       -115.3329073,
       36.1570549
      ],
      [
       -115.332874,
       36.1570457
      ],
      [
       -115.3328498,
       36.1570219
      ],
      [
       -115.3326835,
       36.1571731
      ],
      [
       -115.3326108,
       36.15712
      ],
      [
       -115.3325372,
       36.1570664
      ],
      [
       -115.3327289,
       36.1568907
      ],
      [
       -115.3326658,
       36.1568479
      ],
      [
       -115.332463,
       36.1568447
      ],
      [
       -115.332463,
       36.1567484
      ],
      [
       -115.334982,
       36.156758
      ],
      [
       -115.3349799,
       36.1569282
      ]
     ]
    ]
   }
  },
  {
   "type": "Feature",
   "id": 11,
   "properties": {
    "slug": "santa-fe-station",
    "room": "Santa Fe Station",
    "matched": "Santa Fe Station Hotel and Casino",
    "method": "contains+name",
    "height": null,
    "levels": null
   },
   "geometry": {
    "type": "Polygon",
    "coordinates": [
     [
      [
       -115.2461157,
       36.2510234
      ],
      [
       -115.2460347,
       36.251024
      ],
      [
       -115.2449581,
       36.2510325
      ],
      [
       -115.2449376,
       36.2510327
      ],
      [
       -115.2447381,
       36.2508558
      ],
      [
       -115.2447291,
       36.2506022
      ],
      [
       -115.2441456,
       36.2506158
      ],
      [
       -115.2437963,
       36.2502607
      ],
      [
       -115.2438011,
       36.2498512
      ],
      [
       -115.2438493,
       36.2498516
      ],
      [
       -115.2438517,
       36.2496532
      ],
      [
       -115.2437966,
       36.2496528
      ],
      [
       -115.2437997,
       36.2493931
      ],
      [
       -115.2438705,
       36.249393
      ],
      [
       -115.2438715,
       36.249312
      ],
      [
       -115.2440294,
       36.2493117
      ],
      [
       -115.2440221,
       36.2486806
      ],
      [
       -115.2442461,
       36.2486811
      ],
      [
       -115.2442576,
       36.2491493
      ],
      [
       -115.2448056,
       36.2491472
      ],
      [
       -115.2448074,
       36.2489906
      ],
      [
       -115.2449007,
       36.2489879
      ],
      [
       -115.2449022,
       36.2488876
      ],
      [
       -115.2449673,
       36.2488834
      ],
      [
       -115.2449688,
       36.2488296
      ],
      [
       -115.2454336,
       36.2488269
      ],
      [
       -115.2454326,
       36.2489559
      ],
      [
       -115.2458334,
       36.2489582
      ],
      [
       -115.2458438,
       36.2499214
      ],
      [
       -115.2455639,
       36.2499236
      ],
      [
       -115.2455646,
       36.2499833
      ],
      [
       -115.2458341,
       36.2499812
      ],
      [
       -115.2458384,
       36.2503353
      ],
      [
       -115.2459305,
       36.2503345
      ],
      [
       -115.2459539,
       36.2502685
      ],
      [
       -115.2461069,
       36.2503038
      ],
      [
       -115.2461157,
       36.2510234
      ]
     ]
    ]
   }
  },
  {
   "type": "Feature",
   "id": 12,
   "properties": {
    "slug": "skyline",
    "room": "Skyline",
    "matched": "Skyline Hotel and Casino",
    "method": "contains+name",
    "height": null,
    "levels": null
   },
   "geometry": {
    "type": "Polygon",
    "coordinates": [
     [
      [
       -115.007615,
       36.061935
      ],
      [
       -115.00859,
       36.062786
      ],
      [
       -115.008852,
       36.06259
      ],
      [
       -115.008813,
       36.062556
      ],
      [
       -115.00885,
       36.062528
      ],
      [
       -115.008773,
       36.062461
      ],
      [
       -115.008747,
       36.062481
      ],
      [
       -115.00869,
       36.062431
      ],
      [
       -115.008657,
       36.062456
      ],
      [
       -115.008312,
       36.062155
      ],
      [
       -115.008177,
       36.062257
      ],
      [
       -115.00815,
       36.062233
      ],
      [
       -115.008108,
       36.062265
      ],
      [
       -115.008087,
       36.062247
      ],
      [
       -115.008209,
       36.062155
      ],
      [
       -115.0078,
       36.061797
      ],
      [
       -115.007615,
       36.061935
      ]
     ]
    ]
   }
  },
  {
   "type": "Feature",
   "id": 13,
   "properties": {
    "slug": "south-point",
    "room": "South Point",
    "matched": null,
    "method": "contains",
    "height": null,
    "levels": 1
   },
   "geometry": {
    "type": "Polygon",
    "coordinates": [
     [
      [
       -115.1759958,
       36.011286
      ],
      [
       -115.1759595,
       36.0105637
      ],
      [
       -115.1762369,
       36.0105546
      ],
      [
       -115.1765121,
       36.0105455
      ],
      [
       -115.1765256,
       36.0108165
      ],
      [
       -115.1763989,
       36.0108206
      ],
      [
       -115.1764092,
       36.0110271
      ],
      [
       -115.1762754,
       36.0111287
      ],
      [
       -115.1762799,
       36.011218
      ],
      [
       -115.177203,
       36.011187
      ],
      [
       -115.1772772,
       36.0111845
      ],
      [
       -115.1772815,
       36.0112688
      ],
      [
       -115.1772844,
       36.0113269
      ],
      [
       -115.1772084,
       36.0113295
      ],
      [
       -115.1772121,
       36.0114024
      ],
      [
       -115.1762697,
       36.0114334
      ],
      [
       -115.1763032,
       36.0120995
      ],
      [
       -115.176037,
       36.0121082
      ],
      [
       -115.1760109,
       36.0115885
      ],
      [
       -115.1759958,
       36.011286
      ]
     ]
    ]
   }
  },
  {
   "type": "Feature",
   "id": 14,
   "properties": {
    "slug": "orleans",
    "room": "The Orleans",
    "matched": null,
    "method": "contains",
    "height": null,
    "levels": null
   },
   "geometry": {
    "type": "Polygon",
    "coordinates": [
     [
      [
       -115.2005188,
       36.1033438
      ],
      [
       -115.200813,
       36.1033453
      ],
      [
       -115.2015118,
       36.1033424
      ],
      [
       -115.2022324,
       36.1033393
      ],
      [
       -115.2022295,
       36.103447
      ],
      [
       -115.202228,
       36.1035373
      ],
      [
       -115.2014108,
       36.1035422
      ],
      [
       -115.2014062,
       36.1045075
      ],
      [
       -115.2011744,
       36.1045088
      ],
      [
       -115.2011504,
       36.1045088
      ],
      [
       -115.2011482,
       36.1035463
      ],
      [
       -115.2005192,
       36.1035472
      ],
      [
       -115.2005188,
       36.1033438
      ]
     ]
    ]
   }
  },
  {
   "type": "Feature",
   "id": 15,
   "properties": {
    "slug": "venetian",
    "room": "Venetian",
    "matched": "Venetian Expo",
    "method": "name-only",
    "height": null,
    "levels": null
   },
   "geometry": {
    "type": "Polygon",
    "coordinates": [
     [
      [
       -115.1643241,
       36.1203098
      ],
      [
       -115.1669848,
       36.1203314
      ],
      [
       -115.1669795,
       36.1204311
      ],
      [
       -115.1679081,
       36.1204455
      ],
      [
       -115.1678555,
       36.1218454
      ],
      [
       -115.1681521,
       36.1218467
      ],
      [
       -115.1681454,
       36.121985
      ],
      [
       -115.1680983,
       36.1232201
      ],
      [
       -115.1680881,
       36.1234855
      ],
      [
       -115.1666519,
       36.1234612
      ],
      [
       -115.1665825,
       36.12346
      ],
      [
       -115.1665771,
       36.1233257
      ],
      [
       -115.166502,
       36.1231307
      ],
      [
       -115.1663947,
       36.1229314
      ],
      [
       -115.1663521,
       36.1228923
      ],
      [
       -115.1661855,
       36.1227364
      ],
      [
       -115.1658529,
       36.1224851
      ],
      [
       -115.1658102,
       36.1224545
      ],
      [
       -115.1657652,
       36.1224283
      ],
      [
       -115.1655242,
       36.1223138
      ],
      [
       -115.1651341,
       36.1221861
      ],
      [
       -115.164764,
       36.1221167
      ],
      [
       -115.1643885,
       36.1220907
      ],
      [
       -115.1643294,
       36.1220517
      ],
      [
       -115.164308,
       36.1219781
      ],
      [
       -115.1643241,
       36.1203098
      ]
     ]
    ]
   }
  },
  {
   "type": "Feature",
   "id": 16,
   "properties": {
    "slug": "westgate",
    "room": "Westgate",
    "matched": "Westgate Las Vegas Resort & Casino",
    "method": "contains+name",
    "height": null,
    "levels": null
   },
   "geometry": {
    "type": "Polygon",
    "coordinates": [
     [
      [
       -115.1522378,
       36.1374047
      ],
      [
       -115.1517164,
       36.1366775
      ],
      [
       -115.1513242,
       36.1364672
      ],
      [
       -115.1512297,
       36.1365985
      ],
      [
       -115.1513075,
       36.1366353
      ],
      [
       -115.1512324,
       36.136748
      ],
      [
       -115.1511787,
       36.136722
      ],
      [
       -115.1511385,
       36.1367805
      ],
      [
       -115.1506905,
       36.1365725
      ],
      [
       -115.1507871,
       36.136436
      ],
      [
       -115.150822,
       36.1364512
      ],
      [
       -115.1508809,
       36.1363776
      ],
      [
       -115.1507093,
       36.1362844
      ],
      [
       -115.1504997,
       36.1362811
      ],
      [
       -115.1505001,
       36.1362043
      ],
      [
       -115.1501679,
       36.1362047
      ],
      [
       -115.1501669,
       36.1359705
      ],
      [
       -115.1504336,
       36.135972
      ],
      [
       -115.1504384,
       36.1356107
      ],
      [
       -115.1501358,
       36.1356105
      ],
      [
       -115.1501344,
       36.135062
      ],
      [
       -115.1504465,
       36.1350605
      ],
      [
       -115.1503606,
       36.1349392
      ],
      [
       -115.1505484,
       36.1348525
      ],
      [
       -115.1504867,
       36.1347659
      ],
      [
       -115.150484,
       36.1346867
      ],
      [
       -115.1505383,
       36.134687
      ],
      [
       -115.1505401,
       36.13448
      ],
      [
       -115.1514335,
       36.1340619
      ],
      [
       -115.1514389,
       36.1338799
      ],
      [
       -115.1528336,
       36.1338756
      ],
      [
       -115.1528336,
       36.1339276
      ],
      [
       -115.152949,
       36.1339276
      ],
      [
       -115.152957,
       36.1342677
      ],
      [
       -115.1530991,
       36.1342677
      ],
      [
       -115.1530976,
       36.1346164
      ],
      [
       -115.1529517,
       36.1346143
      ],
      [
       -115.1529517,
       36.1349609
      ],
      [
       -115.1528417,
       36.1349609
      ],
      [
       -115.1528417,
       36.135067
      ],
      [
       -115.1522033,
       36.1353746
      ],
      [
       -115.1523884,
       36.1354721
      ],
      [
       -115.1522918,
       36.1355869
      ],
      [
       -115.1522194,
       36.1356995
      ],
      [
       -115.1521819,
       36.1357862
      ],
      [
       -115.1521631,
       36.1358598
      ],
      [
       -115.1521524,
       36.1359422
      ],
      [
       -115.152157,
       36.1360383
      ],
      [
       -115.1521953,
       36.1362324
      ],
      [
       -115.1521604,
       36.1362433
      ],
      [
       -115.1521899,
       36.1363451
      ],
      [
       -115.1522409,
       36.1363646
      ],
      [
       -115.1522972,
       36.1363906
      ],
      [
       -115.1523401,
       36.136436
      ],
      [
       -115.1527982,
       36.1371396
      ],
      [
       -115.1522378,
       36.1374047
      ]
     ]
    ]
   }
  },
  {
   "type": "Feature",
   "id": 17,
   "properties": {
    "slug": "wynn-encore",
    "room": "Wynn/Encore",
    "matched": "Encore",
    "method": "contains+name",
    "height": null,
    "levels": null
   },
   "geometry": {
    "type": "Polygon",
    "coordinates": [
     [
      [
       -115.1638574,
       36.1268115
      ],
      [
       -115.1633263,
       36.1283049
      ],
      [
       -115.1631351,
       36.1282583
      ],
      [
       -115.1629212,
       36.128206
      ],
      [
       -115.1630311,
       36.1279122
      ],
      [
       -115.1627702,
       36.1278485
      ],
      [
       -115.1625587,
       36.1284054
      ],
      [
       -115.1624367,
       36.1287391
      ],
      [
       -115.1623541,
       36.1289608
      ],
      [
       -115.1637049,
       36.1292904
      ],
      [
       -115.163739,
       36.1291971
      ],
      [
       -115.1638845,
       36.1288102
      ],
      [
       -115.1640026,
       36.128911
      ],
      [
       -115.1639796,
       36.1289734
      ],
      [
       -115.1639383,
       36.1289687
      ],
      [
       -115.163897,
       36.1290262
      ],
      [
       -115.1639008,
       36.1290701
      ],
      [
       -115.1639251,
       36.1290929
      ],
      [
       -115.1639136,
       36.1291476
      ],
      [
       -115.1640995,
       36.1291913
      ],
      [
       -115.1642165,
       36.1292272
      ],
      [
       -115.1642654,
       36.1292474
      ],
      [
       -115.1643677,
       36.1292891
      ],
      [
       -115.1645579,
       36.1293861
      ],
      [
       -115.164707,
       36.1294712
      ],
      [
       -115.1648969,
       36.1296064
      ],
      [
       -115.1650687,
       36.1297576
      ],
      [
       -115.1650971,
       36.1297826
      ],
      [
       -115.1651975,
       36.1298922
      ],
      [
       -115.1653012,
       36.130001
      ],
      [
       -115.1653648,
       36.1300891
      ],
      [
       -115.1656111,
       36.1299786
      ],
      [
       -115.1655795,
       36.1299416
      ],
      [
       -115.1656007,
       36.1299327
      ],
      [
       -115.1656813,
       36.1298985
      ],
      [
       -115.1658449,
       36.1299462
      ],
      [
       -115.1658931,
       36.1298768
      ],
      [
       -115.1660165,
       36.1298812
      ],
      [
       -115.1661372,
       36.1298335
      ],
      [
       -115.1662767,
       36.129632
      ],
      [
       -115.1664272,
       36.129391
      ],
      [
       -115.1665468,
       36.1292223
      ],
      [
       -115.166579,
       36.1291491
      ],
      [
       -115.1665709,
       36.1290645
      ],
      [
       -115.1664765,
       36.1289673
      ],
      [
       -115.1662105,
       36.1288515
      ],
      [
       -115.1662177,
       36.1288413
      ],
      [
       -115.1662391,
       36.1288026
      ],
      [
       -115.1662515,
       36.1287801
      ],
      [
       -115.1662763,
       36.128735
      ],
      [
       -115.1661319,
       36.1286615
      ],
      [
       -115.1661181,
       36.1286809
      ],
      [
       -115.1660219,
       36.1286463
      ],
      [
       -115.1660219,
       36.1286268
      ],
      [
       -115.1659468,
       36.1285965
      ],
      [
       -115.1659062,
       36.1286397
      ],
      [
       -115.1653755,
       36.1284557
      ],
      [
       -115.1654188,
       36.128393
      ],
      [
       -115.1652282,
       36.1283454
      ],
      [
       -115.1652519,
       36.1282836
      ],
      [
       -115.1651609,
       36.1282609
      ],
      [
       -115.1651995,
       36.1281599
      ],
      [
       -115.1653211,
       36.1278424
      ],
      [
       -115.1652277,
       36.1278225
      ],
      [
       -115.1644403,
       36.1276345
      ],
      [
       -115.1646159,
       36.1271548
      ],
      [
       -115.1646387,
       36.1270745
      ],
      [
       -115.1641422,
       36.12695
      ],
      [
       -115.1642641,
       36.1266327
      ],
      [
       -115.1638411,
       36.1265346
      ],
      [
       -115.1637451,
       36.1267826
      ],
      [
       -115.1638043,
       36.1267978
      ],
      [
       -115.1638574,
       36.1268115
      ]
     ]
    ]
   }
  }
 ]
}